[
    {
        "Altitude(m)": 571820.9428989099,
        "Argument of Periapsis(deg)": 0.033114955553567506,
        "Eccentricity": 0.0,
        "Inclination(deg)": 53.0,
        "Latitude(deg)": -53.08929743621095,
        "Longitude(deg)": 44.83707817101196,
        "Mean Anomaly(deg)": -87.72373566211202,
        "RAAN(deg)": 234.95071684264005,
        "Satellite Name": "Starlink Shell 1 1047",
        "Satellite Number": 1047,
        "Semi-Major Axis(m)": 6931778.249405717,
        "Time(s)": 950
    },
    {
        "Altitude(m)": 571806.3252938312,
        "Argument of Periapsis(deg)": 0.03346353403307874,
        "Eccentricity": 0.0,
        "Inclination(deg)": 53.0,
        "Latitude(deg)": -53.0515119740028,
        "Longitude(deg)": 45.83070603794522,
        "Mean Anomaly(deg)": -87.09690445855539,
        "RAAN(deg)": 234.9501980725626,
        "Satellite Name": "Starlink Shell 1 1047",
        "Satellite Number": 1047,
        "Semi-Major Axis(m)": 6931778.249405717,
        "Time(s)": 960
    },
    {
        "Altitude(m)": 571788.241826097,
        "Argument of Periapsis(deg)": 0.03381211251258998,
        "Eccentricity": 0.0,
        "Inclination(deg)": 53.0,
        "Latitude(deg)": -53.00474549616701,
        "Longitude(deg)": 46.82231390887409,
        "Mean Anomaly(deg)": -86.4700732549986,
        "RAAN(deg)": 234.94967930248512,
        "Satellite Name": "Starlink Shell 1 1047",
        "Satellite Number": 1047,
        "Semi-Major Axis(m)": 6931778.249405717,
        "Time(s)": 970
    },
    {
        "Altitude(m)": 571766.6996923593,
        "Argument of Periapsis(deg)": 0.034160690992101214,
        "Eccentricity": 0.0,
        "Inclination(deg)": 53.0,
        "Latitude(deg)": -52.949032259559715,
        "Longitude(deg)": 47.81148275355248,
        "Mean Anomaly(deg)": -85.84324205144193,
        "RAAN(deg)": 234.94916053240763,
        "Satellite Name": "Starlink Shell 1 1047",
        "Satellite Number": 1047,
        "Semi-Major Axis(m)": 6931778.249405717,
        "Time(s)": 980
    },
    {
        "Altitude(m)": 571741.7074692785,
        "Argument of Periapsis(deg)": 0.034509269471612446,
        "Eccentricity": 0.0,
        "Inclination(deg)": 53.0,
        "Latitude(deg)": -52.88441285087782,
        "Longitude(deg)": 48.79780117573877,
        "Mean Anomaly(deg)": -85.21641084788521,
        "RAAN(deg)": 234.94864176233017,
        "Satellite Name": "Starlink Shell 1 1047",
        "Satellite Number": 1047,
        "Semi-Major Axis(m)": 6931778.249405717,
        "Time(s)": 990
    }
]